0 TITAN 3C TRANSTAGE DEB
1 38692U 68081S   13283.35975000 -.00000212  00000-0  10000-3 0   875
2 38692 008.5632 326.7885 0322486 267.6369 088.6408 00.99168988 21350
0 TITAN 3C TRANSTAGE DEB
1 38692U 68081S   13288.40136006 -.00000385  00000-0  10000-3 0   894
2 38692 008.5583 326.7535 0321774 268.4288 087.7845 00.99169653 21406
0 TITAN 3C TRANSTAGE DEB
1 38692U 68081S   13293.44305094 -.00000441  00000-0  10000-3 0   904
2 38692 008.5536 326.7262 0320804 268.1510 088.0818 00.99168542 21454
